HIMAWARI-8              
1 40267U 14060A   23322.88731255 -.00000266  00000+0  00000+0 0  9994
2 40267   0.0028 155.2198 0000316  95.5737 266.9879  1.00272667 33327
